ONEWEB-0687             
1 61595U 24188B   26084.54912483  .00000046  00000+0  86450-4 0  9991
2 61595  87.9164  22.4914 0001580  63.9219 296.2075 13.17649369 74886
ONEWEB-0688             
1 61596U 24188C   26084.57780318  .00000073  00000+0  15451-3 0  9997
2 61596  87.9163  22.4853 0000592  86.7278 273.3921 13.17650204 74884
ONEWEB-0689             
1 61597U 24188D   26084.56952165 -.00000070  00000+0 -23450-3 0  9995
2 61597  87.8906  37.6587 0001885  69.5703 290.5627 13.11415713 73497
ONEWEB-0690             
1 61598U 24188E   26084.42710387 -.00000490  00000+0 -14176-2 0  9999
2 61598  87.8899  37.7062 0002193  98.4939 261.6438 13.11416016 73657
ONEWEB-0691             
1 61599U 24188F   26084.57460734 -.00000255  00000+0 -75413-3 0  9995
2 61599  87.8906  37.5783 0001445  77.5470 282.5820 13.11416168 73523
ONEWEB-0692             
1 61600U 24188G   26084.59494483 -.00000459  00000+0 -13317-2 0  9998
2 61600  87.8991  37.7053 0002933  70.2295 289.9149 13.11417891 73518
ONEWEB-0693             
1 61601U 24188H   26084.58961880  .00000059  00000+0  11980-3 0  9997
2 61601  87.9163  22.5043 0002042 103.1687 256.9673 13.17649333 74874
ONEWEB-0695             
1 61602U 24188J   26084.57120587 -.00000085  00000+0 -27684-3 0  9997
2 61602  87.8886  37.6993 0002172  67.3295 292.8063 13.11416978 73509
ONEWEB-0697             
1 61603U 24188K   26084.60343690 -.00000020  00000+0 -93562-4 0  9992
2 61603  87.8891  37.6823 0002625  73.3174 286.8242 13.11419429 73498
ONEWEB-0698             
1 61604U 24188L   26084.58139099 -.00000449  00000+0 -13025-2 0  9995
2 61604  87.8890  37.7021 0003004  88.6347 271.5125 13.11416553 73511
ONEWEB-0699             
1 61605U 24188M   26084.60406223  .00000328  00000+0  90346-3 0  9991
2 61605  87.8804  52.8997 0002577  79.0645 281.0772 13.10371005 72363
ONEWEB-0700             
1 61606U 24188N   26084.60571825  .00000271  00000+0  73964-3 0  9997
2 61606  87.8815  52.7957 0002389  69.1350 291.0033 13.10370427 72352
ONEWEB-0701             
1 61607U 24188P   26084.39323458 -.00000564  00000+0 -16514-2 0  9995
2 61607  87.8806  52.9412 0002716  76.8191 283.3239 13.10371806 72335
ONEWEB-0702             
1 61608U 24188Q   26084.62717541  .00000515  00000+0  14180-2 0  9993
2 61608  87.8907  37.5839 0002750  66.5968 293.5449 13.11415013 73535
ONEWEB-0704             
1 61609U 24188R   26084.38162146 -.00000079  00000+0 -26269-3 0  9991
2 61609  87.8813  52.9216 0002650  67.1746 292.9661 13.10369041 72314
ONEWEB-0705             
1 61610U 24188S   26084.38659213 -.00000304  00000+0 -90678-3 0  9995
2 61610  87.8807  52.9321 0001913  47.8533 312.2757 13.10371288 64483
ONEWEB-0706             
1 61611U 24188T   26084.37166930  .00000458  00000+0  12747-2 0  9992
2 61611  87.8793  52.9462 0002233  67.7898 292.3466 13.10371058 72406
