[{"OBJECT_NAME":"ONEWEB-0687","OBJECT_ID":"2024-188B","EPOCH":"2026-03-25T13:10:44.385312","MEAN_MOTION":13.17649369,"ECCENTRICITY":0.00015809,"INCLINATION":87.9164,"RA_OF_ASC_NODE":22.4914,"ARG_OF_PERICENTER":63.9219,"MEAN_ANOMALY":296.2075,"EPHEMERIS_TYPE":0,"CLASSIFICATION_TYPE":"U","NORAD_CAT_ID":61595,"ELEMENT_SET_NO":999,"REV_AT_EPOCH":7488,"BSTAR":8.6450247e-5,"MEAN_MOTION_DOT":4.6e-7,"MEAN_MOTION_DDOT":0},{"OBJECT_NAME":"ONEWEB-0688","OBJECT_ID":"2024-188C","EPOCH":"2026-03-25T13:52:02.194752","MEAN_MOTION":13.17650204,"ECCENTRICITY":5.922e-5,"INCLINATION":87.9163,"RA_OF_ASC_NODE":22.4853,"ARG_OF_PERICENTER":86.7278,"MEAN_ANOMALY":273.3921,"EPHEMERIS_TYPE":0,"CLASSIFICATION_TYPE":"U","NORAD_CAT_ID":61596,"ELEMENT_SET_NO":999,"REV_AT_EPOCH":7488,"BSTAR":0.00015450605,"MEAN_MOTION_DOT":7.3e-7,"MEAN_MOTION_DDOT":0},{"OBJECT_NAME":"ONEWEB-0689","OBJECT_ID":"2024-188D","EPOCH":"2026-03-25T13:40:06.670560","MEAN_MOTION":13.11415713,"ECCENTRICITY":0.00018854,"INCLINATION":87.8906,"RA_OF_ASC_NODE":37.6587,"ARG_OF_PERICENTER":69.5703,"MEAN_ANOMALY":290.5627,"EPHEMERIS_TYPE":0,"CLASSIFICATION_TYPE":"U","NORAD_CAT_ID":61597,"ELEMENT_SET_NO":999,"REV_AT_EPOCH":7349,"BSTAR":-0.00023449626,"MEAN_MOTION_DOT":-7.0e-7,"MEAN_MOTION_DDOT":0},{"OBJECT_NAME":"ONEWEB-0690","OBJECT_ID":"2024-188E","EPOCH":"2026-03-25T10:15:01.774368","MEAN_MOTION":13.11416016,"ECCENTRICITY":0.00021932,"INCLINATION":87.8899,"RA_OF_ASC_NODE":37.7062,"ARG_OF_PERICENTER":98.4939,"MEAN_ANOMALY":261.6438,"EPHEMERIS_TYPE":0,"CLASSIFICATION_TYPE":"U","NORAD_CAT_ID":61598,"ELEMENT_SET_NO":999,"REV_AT_EPOCH":7365,"BSTAR":-0.0014175776,"MEAN_MOTION_DOT":-4.9e-6,"MEAN_MOTION_DDOT":0},{"OBJECT_NAME":"ONEWEB-0691","OBJECT_ID":"2024-188F","EPOCH":"2026-03-25T13:47:26.074176","MEAN_MOTION":13.11416168,"ECCENTRICITY":0.00014453,"INCLINATION":87.8906,"RA_OF_ASC_NODE":37.5783,"ARG_OF_PERICENTER":77.547,"MEAN_ANOMALY":282.582,"EPHEMERIS_TYPE":0,"CLASSIFICATION_TYPE":"U","NORAD_CAT_ID":61599,"ELEMENT_SET_NO":999,"REV_AT_EPOCH":7352,"BSTAR":-0.00075413088,"MEAN_MOTION_DOT":-2.55e-6,"MEAN_MOTION_DDOT":0},{"OBJECT_NAME":"ONEWEB-0692","OBJECT_ID":"2024-188G","EPOCH":"2026-03-25T14:16:43.233312","MEAN_MOTION":13.11417891,"ECCENTRICITY":0.00029337,"INCLINATION":87.8991,"RA_OF_ASC_NODE":37.7053,"ARG_OF_PERICENTER":70.2295,"MEAN_ANOMALY":289.9149,"EPHEMERIS_TYPE":0,"CLASSIFICATION_TYPE":"U","NORAD_CAT_ID":61600,"ELEMENT_SET_NO":999,"REV_AT_EPOCH":7351,"BSTAR":-0.001331727,"MEAN_MOTION_DOT":-4.59e-6,"MEAN_MOTION_DDOT":0},{"OBJECT_NAME":"ONEWEB-0693","OBJECT_ID":"2024-188H","EPOCH":"2026-03-25T14:09:03.064320","MEAN_MOTION":13.17649333,"ECCENTRICITY":0.0002042,"INCLINATION":87.9163,"RA_OF_ASC_NODE":22.5043,"ARG_OF_PERICENTER":103.1687,"MEAN_ANOMALY":256.9673,"EPHEMERIS_TYPE":0,"CLASSIFICATION_TYPE":"U","NORAD_CAT_ID":61601,"ELEMENT_SET_NO":999,"REV_AT_EPOCH":7487,"BSTAR":0.0001198049,"MEAN_MOTION_DOT":5.9e-7,"MEAN_MOTION_DDOT":0},{"OBJECT_NAME":"ONEWEB-0695","OBJECT_ID":"2024-188J","EPOCH":"2026-03-25T13:42:32.187168","MEAN_MOTION":13.11416978,"ECCENTRICITY":0.00021723,"INCLINATION":87.8886,"RA_OF_ASC_NODE":37.6993,"ARG_OF_PERICENTER":67.3295,"MEAN_ANOMALY":292.8063,"EPHEMERIS_TYPE":0,"CLASSIFICATION_TYPE":"U","NORAD_CAT_ID":61602,"ELEMENT_SET_NO":999,"REV_AT_EPOCH":7350,"BSTAR":-0.0002768409,"MEAN_MOTION_DOT":-8.5e-7,"MEAN_MOTION_DDOT":0},{"OBJECT_NAME":"ONEWEB-0697","OBJECT_ID":"2024-188K","EPOCH":"2026-03-25T14:28:56.948160","MEAN_MOTION":13.11419429,"ECCENTRICITY":0.00026251,"INCLINATION":87.8891,"RA_OF_ASC_NODE":37.6823,"ARG_OF_PERICENTER":73.3174,"MEAN_ANOMALY":286.8242,"EPHEMERIS_TYPE":0,"CLASSIFICATION_TYPE":"U","NORAD_CAT_ID":61603,"ELEMENT_SET_NO":999,"REV_AT_EPOCH":7349,"BSTAR":-9.3561709e-5,"MEAN_MOTION_DOT":-2.0e-7,"MEAN_MOTION_DDOT":0},{"OBJECT_NAME":"ONEWEB-0698","OBJECT_ID":"2024-188L","EPOCH":"2026-03-25T13:57:12.181536","MEAN_MOTION":13.11416553,"ECCENTRICITY":0.00030043,"INCLINATION":87.889,"RA_OF_ASC_NODE":37.7021,"ARG_OF_PERICENTER":88.6347,"MEAN_ANOMALY":271.5125,"EPHEMERIS_TYPE":0,"CLASSIFICATION_TYPE":"U","NORAD_CAT_ID":61604,"ELEMENT_SET_NO":999,"REV_AT_EPOCH":7351,"BSTAR":-0.0013024907,"MEAN_MOTION_DOT":-4.49e-6,"MEAN_MOTION_DDOT":0},{"OBJECT_NAME":"ONEWEB-0699","OBJECT_ID":"2024-188M","EPOCH":"2026-03-25T14:29:50.976672","MEAN_MOTION":13.10371005,"ECCENTRICITY":0.00025776,"INCLINATION":87.8804,"RA_OF_ASC_NODE":52.8997,"ARG_OF_PERICENTER":79.0645,"MEAN_ANOMALY":281.0772,"EPHEMERIS_TYPE":0,"CLASSIFICATION_TYPE":"U","NORAD_CAT_ID":61605,"ELEMENT_SET_NO":999,"REV_AT_EPOCH":7236,"BSTAR":0.00090346049,"MEAN_MOTION_DOT":3.28e-6,"MEAN_MOTION_DDOT":0},{"OBJECT_NAME":"ONEWEB-0700","OBJECT_ID":"2024-188N","EPOCH":"2026-03-25T14:32:14.056800","MEAN_MOTION":13.10370427,"ECCENTRICITY":0.00023897,"INCLINATION":87.8815,"RA_OF_ASC_NODE":52.7957,"ARG_OF_PERICENTER":69.135,"MEAN_ANOMALY":291.0033,"EPHEMERIS_TYPE":0,"CLASSIFICATION_TYPE":"U","NORAD_CAT_ID":61606,"ELEMENT_SET_NO":999,"REV_AT_EPOCH":7235,"BSTAR":0.00073964152,"MEAN_MOTION_DOT":2.71e-6,"MEAN_MOTION_DDOT":0},{"OBJECT_NAME":"ONEWEB-0701","OBJECT_ID":"2024-188P","EPOCH":"2026-03-25T09:26:15.467712","MEAN_MOTION":13.10371806,"ECCENTRICITY":0.0002716,"INCLINATION":87.8806,"RA_OF_ASC_NODE":52.9412,"ARG_OF_PERICENTER":76.8191,"MEAN_ANOMALY":283.3239,"EPHEMERIS_TYPE":0,"CLASSIFICATION_TYPE":"U","NORAD_CAT_ID":61607,"ELEMENT_SET_NO":999,"REV_AT_EPOCH":7233,"BSTAR":-0.0016513564,"MEAN_MOTION_DOT":-5.64e-6,"MEAN_MOTION_DDOT":0},{"OBJECT_NAME":"ONEWEB-0702","OBJECT_ID":"2024-188Q","EPOCH":"2026-03-25T15:03:07.955424","MEAN_MOTION":13.11415013,"ECCENTRICITY":0.00027509,"INCLINATION":87.8907,"RA_OF_ASC_NODE":37.5839,"ARG_OF_PERICENTER":66.5968,"MEAN_ANOMALY":293.5449,"EPHEMERIS_TYPE":0,"CLASSIFICATION_TYPE":"U","NORAD_CAT_ID":61608,"ELEMENT_SET_NO":999,"REV_AT_EPOCH":7353,"BSTAR":0.0014179989,"MEAN_MOTION_DOT":5.15e-6,"MEAN_MOTION_DDOT":0},{"OBJECT_NAME":"ONEWEB-0704","OBJECT_ID":"2024-188R","EPOCH":"2026-03-25T09:09:32.094144","MEAN_MOTION":13.10369041,"ECCENTRICITY":0.00026508,"INCLINATION":87.8813,"RA_OF_ASC_NODE":52.9216,"ARG_OF_PERICENTER":67.1746,"MEAN_ANOMALY":292.9661,"EPHEMERIS_TYPE":0,"CLASSIFICATION_TYPE":"U","NORAD_CAT_ID":61609,"ELEMENT_SET_NO":999,"REV_AT_EPOCH":7231,"BSTAR":-0.0002626898,"MEAN_MOTION_DOT":-7.9e-7,"MEAN_MOTION_DDOT":0},{"OBJECT_NAME":"ONEWEB-0705","OBJECT_ID":"2024-188S","EPOCH":"2026-03-25T09:16:41.560032","MEAN_MOTION":13.10371288,"ECCENTRICITY":0.00019133,"INCLINATION":87.8807,"RA_OF_ASC_NODE":52.9321,"ARG_OF_PERICENTER":47.8533,"MEAN_ANOMALY":312.2757,"EPHEMERIS_TYPE":0,"CLASSIFICATION_TYPE":"U","NORAD_CAT_ID":61610,"ELEMENT_SET_NO":999,"REV_AT_EPOCH":6448,"BSTAR":-0.00090678082,"MEAN_MOTION_DOT":-3.04e-6,"MEAN_MOTION_DDOT":0},{"OBJECT_NAME":"ONEWEB-0706","OBJECT_ID":"2024-188T","EPOCH":"2026-03-25T08:55:12.227520","MEAN_MOTION":13.10371058,"ECCENTRICITY":0.00022334,"INCLINATION":87.8793,"RA_OF_ASC_NODE":52.9462,"ARG_OF_PERICENTER":67.7898,"MEAN_ANOMALY":292.3466,"EPHEMERIS_TYPE":0,"CLASSIFICATION_TYPE":"U","NORAD_CAT_ID":61611,"ELEMENT_SET_NO":999,"REV_AT_EPOCH":7240,"BSTAR":0.0012746979,"MEAN_MOTION_DOT":4.58e-6,"MEAN_MOTION_DDOT":0}]
